[{"OBJECT_NAME":"STARLINK-36996","OBJECT_ID":"2026-041AA","EPOCH":"2026-03-11T18:00:01.999296","MEAN_MOTION":15.88263887,"ECCENTRICITY":7.75e-5,"INCLINATION":53.1585,"RA_OF_ASC_NODE":51.6635,"ARG_OF_PERICENTER":93.6164,"MEAN_ANOMALY":354.7823,"EPHEMERIS_TYPE":0,"CLASSIFICATION_TYPE":"U","NORAD_CAT_ID":68064,"ELEMENT_SET_NO":999,"REV_AT_EPOCH":270,"BSTAR":-0.0062081,"MEAN_MOTION_DOT":-0.01541305,"MEAN_MOTION_DDOT":0},{"OBJECT_NAME":"STARLINK-36836","OBJECT_ID":"2026-041AB","EPOCH":"2026-03-11T18:00:01.999296","MEAN_MOTION":15.88469949,"ECCENTRICITY":5.9e-5,"INCLINATION":53.1584,"RA_OF_ASC_NODE":51.6492,"ARG_OF_PERICENTER":96.0617,"MEAN_ANOMALY":359.0388,"EPHEMERIS_TYPE":0,"CLASSIFICATION_TYPE":"U","NORAD_CAT_ID":68065,"ELEMENT_SET_NO":999,"REV_AT_EPOCH":270,"BSTAR":-0.0059474,"MEAN_MOTION_DOT":-0.01467312,"MEAN_MOTION_DDOT":0},{"OBJECT_NAME":"STARLINK-36976","OBJECT_ID":"2026-041AC","EPOCH":"2026-03-11T18:00:01.999296","MEAN_MOTION":15.88619964,"ECCENTRICITY":7.3e-5,"INCLINATION":53.1581,"RA_OF_ASC_NODE":51.6421,"ARG_OF_PERICENTER":93.4303,"MEAN_ANOMALY":5.0866,"EPHEMERIS_TYPE":0,"CLASSIFICATION_TYPE":"U","NORAD_CAT_ID":68066,"ELEMENT_SET_NO":999,"REV_AT_EPOCH":270,"BSTAR":-0.0060778,"MEAN_MOTION_DOT":-0.01536916,"MEAN_MOTION_DDOT":0},{"OBJECT_NAME":"STARLINK-36929","OBJECT_ID":"2026-041AD","EPOCH":"2026-03-11T18:00:01.999296","MEAN_MOTION":15.88375126,"ECCENTRICITY":6.53e-5,"INCLINATION":53.1581,"RA_OF_ASC_NODE":51.6559,"ARG_OF_PERICENTER":103.9279,"MEAN_ANOMALY":347.9519,"EPHEMERIS_TYPE":0,"CLASSIFICATION_TYPE":"U","NORAD_CAT_ID":68067,"ELEMENT_SET_NO":999,"REV_AT_EPOCH":270,"BSTAR":-0.0061731,"MEAN_MOTION_DOT":-0.01541167,"MEAN_MOTION_DDOT":0},{"OBJECT_NAME":"STARLINK-36990","OBJECT_ID":"2026-041AE","EPOCH":"2026-03-11T18:00:01.999296","MEAN_MOTION":15.88723895,"ECCENTRICITY":6.66e-5,"INCLINATION":53.158,"RA_OF_ASC_NODE":51.6345,"ARG_OF_PERICENTER":101.5296,"MEAN_ANOMALY":0.612,"EPHEMERIS_TYPE":0,"CLASSIFICATION_TYPE":"U","NORAD_CAT_ID":68068,"ELEMENT_SET_NO":999,"REV_AT_EPOCH":270,"BSTAR":-0.00609,"MEAN_MOTION_DOT":-0.01546741,"MEAN_MOTION_DDOT":0},{"OBJECT_NAME":"STARLINK-36766","OBJECT_ID":"2026-042A","EPOCH":"2026-03-11T10:00:01.999584","MEAN_MOTION":15.96637109,"ECCENTRICITY":7.51e-5,"INCLINATION":53.1599,"RA_OF_ASC_NODE":186.4459,"ARG_OF_PERICENTER":85.969,"MEAN_ANOMALY":194.6277,"EPHEMERIS_TYPE":0,"CLASSIFICATION_TYPE":"U","NORAD_CAT_ID":68069,"ELEMENT_SET_NO":999,"REV_AT_EPOCH":231,"BSTAR":-0.0031212,"MEAN_MOTION_DOT":-0.01354828,"MEAN_MOTION_DDOT":0.00055656},{"OBJECT_NAME":"STARLINK-36823","OBJECT_ID":"2026-042B","EPOCH":"2026-03-11T10:00:01.999584","MEAN_MOTION":15.96773569,"ECCENTRICITY":8.11e-5,"INCLINATION":53.1595,"RA_OF_ASC_NODE":186.4415,"ARG_OF_PERICENTER":97.6563,"MEAN_ANOMALY":185.0458,"EPHEMERIS_TYPE":0,"CLASSIFICATION_TYPE":"U","NORAD_CAT_ID":68070,"ELEMENT_SET_NO":999,"REV_AT_EPOCH":231,"BSTAR":-0.0031388,"MEAN_MOTION_DOT":-0.01372502,"MEAN_MOTION_DDOT":0.00057068},{"OBJECT_NAME":"STARLINK-36970","OBJECT_ID":"2026-042C","EPOCH":"2026-03-11T10:00:01.999584","MEAN_MOTION":15.97018054,"ECCENTRICITY":9.7e-5,"INCLINATION":53.16,"RA_OF_ASC_NODE":186.433,"ARG_OF_PERICENTER":74.5488,"MEAN_ANOMALY":212.2528,"EPHEMERIS_TYPE":0,"CLASSIFICATION_TYPE":"U","NORAD_CAT_ID":68071,"ELEMENT_SET_NO":999,"REV_AT_EPOCH":232,"BSTAR":-0.0030891,"MEAN_MOTION_DOT":-0.01369112,"MEAN_MOTION_DDOT":0.00056955},{"OBJECT_NAME":"STARLINK-36972","OBJECT_ID":"2026-042D","EPOCH":"2026-03-11T10:00:01.999584","MEAN_MOTION":15.96888483,"ECCENTRICITY":7.68e-5,"INCLINATION":53.16,"RA_OF_ASC_NODE":186.4377,"ARG_OF_PERICENTER":89.0542,"MEAN_ANOMALY":195.4611,"EPHEMERIS_TYPE":0,"CLASSIFICATION_TYPE":"U","NORAD_CAT_ID":68072,"ELEMENT_SET_NO":999,"REV_AT_EPOCH":232,"BSTAR":-0.0031183,"MEAN_MOTION_DOT":-0.01372189,"MEAN_MOTION_DDOT":0.00057112},{"OBJECT_NAME":"STARLINK-37074","OBJECT_ID":"2026-042E","EPOCH":"2026-03-11T10:00:01.999584","MEAN_MOTION":15.97145678,"ECCENTRICITY":7.65e-5,"INCLINATION":53.16,"RA_OF_ASC_NODE":186.4289,"ARG_OF_PERICENTER":81.9325,"MEAN_ANOMALY":206.9646,"EPHEMERIS_TYPE":0,"CLASSIFICATION_TYPE":"U","NORAD_CAT_ID":68073,"ELEMENT_SET_NO":999,"REV_AT_EPOCH":232,"BSTAR":-0.003081,"MEAN_MOTION_DOT":-0.01375051,"MEAN_MOTION_DDOT":0.00057483},{"OBJECT_NAME":"STARLINK-37045","OBJECT_ID":"2026-042F","EPOCH":"2026-03-11T10:00:01.999584","MEAN_MOTION":15.97273662,"ECCENTRICITY":7.85e-5,"INCLINATION":53.1599,"RA_OF_ASC_NODE":186.4242,"ARG_OF_PERICENTER":78.6812,"MEAN_ANOMALY":212.456,"EPHEMERIS_TYPE":0,"CLASSIFICATION_TYPE":"U","NORAD_CAT_ID":68074,"ELEMENT_SET_NO":999,"REV_AT_EPOCH":232,"BSTAR":-0.003049,"MEAN_MOTION_DOT":-0.0137049,"MEAN_MOTION_DDOT":0.00057211},{"OBJECT_NAME":"STARLINK-37026","OBJECT_ID":"2026-042G","EPOCH":"2026-03-11T10:00:01.999584","MEAN_MOTION":15.97397632,"ECCENTRICITY":8.11e-5,"INCLINATION":53.1598,"RA_OF_ASC_NODE":186.4193,"ARG_OF_PERICENTER":81.9,"MEAN_ANOMALY":211.5412,"EPHEMERIS_TYPE":0,"CLASSIFICATION_TYPE":"U","NORAD_CAT_ID":68075,"ELEMENT_SET_NO":999,"REV_AT_EPOCH":232,"BSTAR":-0.002998,"MEAN_MOTION_DOT":-0.01356996,"MEAN_MOTION_DDOT":0.0005626},{"OBJECT_NAME":"STARLINK-37023","OBJECT_ID":"2026-042H","EPOCH":"2026-03-11T10:00:01.999584","MEAN_MOTION":15.97529062,"ECCENTRICITY":7.96e-5,"INCLINATION":53.1597,"RA_OF_ASC_NODE":186.415,"ARG_OF_PERICENTER":84.547,"MEAN_ANOMALY":211.0027,"EPHEMERIS_TYPE":0,"CLASSIFICATION_TYPE":"U","NORAD_CAT_ID":68076,"ELEMENT_SET_NO":999,"REV_AT_EPOCH":232,"BSTAR":-0.0029999,"MEAN_MOTION_DOT":-0.01367656,"MEAN_MOTION_DDOT":0.00057147},{"OBJECT_NAME":"STARLINK-37036","OBJECT_ID":"2026-042J","EPOCH":"2026-03-11T10:00:01.999584","MEAN_MOTION":15.97646556,"ECCENTRICITY":9.37e-5,"INCLINATION":53.1599,"RA_OF_ASC_NODE":186.4112,"ARG_OF_PERICENTER":76.5617,"MEAN_ANOMALY":220.8442,"EPHEMERIS_TYPE":0,"CLASSIFICATION_TYPE":"U","NORAD_CAT_ID":68077,"ELEMENT_SET_NO":999,"REV_AT_EPOCH":232,"BSTAR":-0.0029749,"MEAN_MOTION_DOT":-0.01365167,"MEAN_MOTION_DDOT":0.00057028},{"OBJECT_NAME":"STARLINK-36973","OBJECT_ID":"2026-042K","EPOCH":"2026-03-11T10:00:01.999584","MEAN_MOTION":15.97888746,"ECCENTRICITY":7.32e-5,"INCLINATION":53.16,"RA_OF_ASC_NODE":186.4028,"ARG_OF_PERICENTER":92.6553,"MEAN_ANOMALY":208.7833,"EPHEMERIS_TYPE":0,"CLASSIFICATION_TYPE":"U","NORAD_CAT_ID":68078,"ELEMENT_SET_NO":999,"REV_AT_EPOCH":232,"BSTAR":-0.0029373,"MEAN_MOTION_DOT":-0.01366168,"MEAN_MOTION_DDOT":0.00057249},{"OBJECT_NAME":"STARLINK-37063","OBJECT_ID":"2026-042L","EPOCH":"2026-03-11T10:00:01.999584","MEAN_MOTION":15.97755997,"ECCENTRICITY":9.31e-5,"INCLINATION":53.1595,"RA_OF_ASC_NODE":186.4075,"ARG_OF_PERICENTER":75.7768,"MEAN_ANOMALY":223.4385,"EPHEMERIS_TYPE":0,"CLASSIFICATION_TYPE":"U","NORAD_CAT_ID":68079,"ELEMENT_SET_NO":999,"REV_AT_EPOCH":232,"BSTAR":-0.0029442,"MEAN_MOTION_DOT":-0.01359419,"MEAN_MOTION_DDOT":0.00056655}]
